{
  "type": "FeatureCollection",
  "features": [
    {
      "type": "Feature",
      "properties": {
        "norad_id": 34070,
        "name": "COSMOS 2251 DEB",
        "group": "cosmos-2251-debris",
        "lat": 66.66110838454402,
        "lon": 134.87047111976457,
        "alt_km": 639.9480973380641,
        "timestamp": "2025-12-24T11:33:00.412306+00:00",
        "meta_object_name": "COSMOS 2251 DEB",
        "meta_object_id": "1993-036KH",
        "meta_epoch": "2025-12-24T00:37:39.118080",
        "meta_mean_motion": 14.77385976,
        "meta_eccentricity": 0.0017912,
        "meta_inclination": 74.0011,
        "meta_ra_of_asc_node": 94.0846,
        "meta_arg_of_pericenter": 211.3585,
        "meta_mean_anomaly": 322.0668,
        "meta_ephemeris_type": 0,
        "meta_classification_type": "U",
        "meta_norad_cat_id": 34070,
        "meta_element_set_no": 999,
        "meta_rev_at_epoch": 88777,
        "meta_bstar": 0.0022927,
        "meta_mean_motion_dot": 0.00016358,
        "meta_mean_motion_ddot": 0,
        "tle_line1": "1 34070U 93036KH  25358.02614720  .00016358  00000+0  22927-2 0  9996",
        "tle_line2": "2 34070  74.0011  94.0846 0017912 211.3585 322.0668 14.77385976887776"
      },
      "geometry": {
        "type": "Point",
        "coordinates": [
          134.87047111976457,
          66.66110838454402
        ]
      }
    },
    {
      "type": "Feature",
      "properties": {
        "norad_id": 34114,
        "name": "COSMOS 2251 DEB",
        "group": "cosmos-2251-debris",
        "lat": 52.199540457646684,
        "lon": 179.95969166008982,
        "alt_km": 712.0313140360113,
        "timestamp": "2025-12-24T11:33:00.412317+00:00",
        "meta_object_name": "COSMOS 2251 DEB",
        "meta_object_id": "1993-036KK",
        "meta_epoch": "2025-12-24T01:13:17.389344",
        "meta_mean_motion": 14.5652215,
        "meta_eccentricity": 0.0048115,
        "meta_inclination": 74.0586,
        "meta_ra_of_asc_node": 22.3968,
        "meta_arg_of_pericenter": 13.2186,
        "meta_mean_anomaly": 15.2878,
        "meta_ephemeris_type": 0,
        "meta_classification_type": "U",
        "meta_norad_cat_id": 34114,
        "meta_element_set_no": 999,
        "meta_rev_at_epoch": 87966,
        "meta_bstar": 0.0016602,
        "meta_mean_motion_dot": 7.483e-05,
        "meta_mean_motion_ddot": 0,
        "tle_line1": "1 34114U 93036KK  25358.05089571  .00007483  00000+0  16602-2 0  9990",
        "tle_line2": "2 34114  74.0586  22.3968 0048115  13.2186  15.2878 14.56522150879663"
      },
      "geometry": {
        "type": "Point",
        "coordinates": [
          179.95969166008982,
          52.199540457646684
        ]
      }
    },
    {
      "type": "Feature",
      "properties": {
        "norad_id": 34115,
        "name": "COSMOS 2251 DEB",
        "group": "cosmos-2251-debris",
        "lat": 44.201854284102296,
        "lon": 22.59145718995097,
        "alt_km": 627.9551660780571,
        "timestamp": "2025-12-24T11:33:00.412327+00:00",
        "meta_object_name": "COSMOS 2251 DEB",
        "meta_object_id": "1993-036KL",
        "meta_epoch": "2025-12-24T01:12:55.632096",
        "meta_mean_motion": 14.79630558,
        "meta_eccentricity": 0.0029063,
        "meta_inclination": 74.0051,
        "meta_ra_of_asc_node": 219.6385,
        "meta_arg_of_pericenter": 39.8281,
        "meta_mean_anomaly": 320.502,
        "meta_ephemeris_type": 0,
        "meta_classification_type": "U",
        "meta_norad_cat_id": 34115,
        "meta_element_set_no": 999,
        "meta_rev_at_epoch": 89579,
        "meta_bstar": 0.00090889,
        "meta_mean_motion_dot": 6.837e-05,
        "meta_mean_motion_ddot": 0,
        "tle_line1": "1 34115U 93036KL  25358.05064389  .00006837  00000+0  90889-3 0  9993",
        "tle_line2": "2 34115  74.0051 219.6385 0029063  39.8281 320.5020 14.79630558895796"
      },
      "geometry": {
        "type": "Point",
        "coordinates": [
          22.59145718995097,
          44.201854284102296
        ]
      }
    },
    {
      "type": "Feature",
      "properties": {
        "norad_id": 34116,
        "name": "COSMOS 2251 DEB",
        "group": "cosmos-2251-debris",
        "lat": 51.85128397784239,
        "lon": -178.00418208911327,
        "alt_km": 718.9181640823181,
        "timestamp": "2025-12-24T11:33:00.412338+00:00",
        "meta_object_name": "COSMOS 2251 DEB",
        "meta_object_id": "1993-036KM",
        "meta_epoch": "2025-12-23T10:38:38.194368",
        "meta_mean_motion": 14.53036158,
        "meta_eccentricity": 0.00117847,
        "meta_inclination": 74.0396,
        "meta_ra_of_asc_node": 162.5854,
        "meta_arg_of_pericenter": 238.6047,
        "meta_mean_anomaly": 150.107,
        "meta_ephemeris_type": 0,
        "meta_classification_type": "U",
        "meta_norad_cat_id": 34116,
        "meta_element_set_no": 999,
        "meta_rev_at_epoch": 88642,
        "meta_bstar": 0.0007775515,
        "meta_mean_motion_dot": 3.187e-05,
        "meta_mean_motion_ddot": 0,
        "tle_line1": "1 34116U 93036KM  25357.44349762  .00003187  00000+0  77755-3 0  9999",
        "tle_line2": "2 34116  74.0396 162.5854 0011784 238.6047 150.1070 14.53036158886426"
      },
      "geometry": {
        "type": "Point",
        "coordinates": [
          -178.00418208911327,
          51.85128397784239
        ]
      }
    },
    {
      "type": "Feature",
      "properties": {
        "norad_id": 34117,
        "name": "COSMOS 2251 DEB",
        "group": "cosmos-2251-debris",
        "lat": 51.49866473802739,
        "lon": -16.779433686885895,
        "alt_km": 716.1037630671035,
        "timestamp": "2025-12-24T11:33:00.412349+00:00",
        "meta_object_name": "COSMOS 2251 DEB",
        "meta_object_id": "1993-036KN",
        "meta_epoch": "2025-12-23T23:37:47.139168",
        "meta_mean_motion": 14.40055256,
        "meta_eccentricity": 0.0055016,
        "meta_inclination": 74.0395,
        "meta_ra_of_asc_node": 323.052,
        "meta_arg_of_pericenter": 36.2731,
        "meta_mean_anomaly": 324.2133,
        "meta_ephemeris_type": 0,
        "meta_classification_type": "U",
        "meta_norad_cat_id": 34117,
        "meta_element_set_no": 999,
        "meta_rev_at_epoch": 88285,
        "meta_bstar": 0.00064829,
        "meta_mean_motion_dot": 2.055e-05,
        "meta_mean_motion_ddot": 0,
        "tle_line1": "1 34117U 93036KN  25357.98457337  .00002055  00000+0  64829-3 0  9998",
        "tle_line2": "2 34117  74.0395 323.0520 0055016  36.2731 324.2133 14.40055256882851"
      },
      "geometry": {
        "type": "Point",
        "coordinates": [
          -16.779433686885895,
          51.49866473802739
        ]
      }
    },
    {
      "type": "Feature",
      "properties": {
        "norad_id": 34118,
        "name": "COSMOS 2251 DEB",
        "group": "cosmos-2251-debris",
        "lat": -64.62426571186865,
        "lon": 82.9045429786557,
        "alt_km": 631.3430145769489,
        "timestamp": "2025-12-24T11:33:00.412360+00:00",
        "meta_object_name": "COSMOS 2251 DEB",
        "meta_object_id": "1993-036KP",
        "meta_epoch": "2025-12-24T01:19:31.047744",
        "meta_mean_motion": 14.94297235,
        "meta_eccentricity": 0.0060147,
        "meta_inclination": 73.9506,
        "meta_ra_of_asc_node": 226.3993,
        "meta_arg_of_pericenter": 53.733,
        "meta_mean_anomaly": 65.632,
        "meta_ephemeris_type": 0,
        "meta_classification_type": "U",
        "meta_norad_cat_id": 34118,
        "meta_element_set_no": 999,
        "meta_rev_at_epoch": 89345,
        "meta_bstar": 0.0014165,
        "meta_mean_motion_dot": 0.00015768,
        "meta_mean_motion_ddot": 0,
        "tle_line1": "1 34118U 93036KP  25358.05522046  .00015768  00000+0  14165-2 0  9990",
        "tle_line2": "2 34118  73.9506 226.3993 0060147  53.7330  65.6320 14.94297235893459"
      },
      "geometry": {
        "type": "Point",
        "coordinates": [
          82.9045429786557,
          -64.62426571186865
        ]
      }
    },
    {
      "type": "Feature",
      "properties": {
        "norad_id": 34120,
        "name": "COSMOS 2251 DEB",
        "group": "cosmos-2251-debris",
        "lat": -44.441977461502304,
        "lon": 32.23672092512173,
        "alt_km": 1023.8036448416105,
        "timestamp": "2025-12-24T11:33:00.412370+00:00",
        "meta_object_name": "COSMOS 2251 DEB",
        "meta_object_id": "1993-036KR",
        "meta_epoch": "2025-12-24T00:44:27.258720",
        "meta_mean_motion": 13.98696062,
        "meta_eccentricity": 0.0182443,
        "meta_inclination": 73.9902,
        "meta_ra_of_asc_node": 196.6627,
        "meta_arg_of_pericenter": 21.8452,
        "meta_mean_anomaly": 98.8069,
        "meta_ephemeris_type": 0,
        "meta_classification_type": "U",
        "meta_norad_cat_id": 34120,
        "meta_element_set_no": 999,
        "meta_rev_at_epoch": 86138,
        "meta_bstar": 0.000289,
        "meta_mean_motion_dot": 4.55e-06,
        "meta_mean_motion_ddot": 0,
        "tle_line1": "1 34120U 93036KR  25358.03087105  .00000455  00000+0  28900-3 0  9993",
        "tle_line2": "2 34120  73.9902 196.6627 0182443  21.8452  98.8069 13.98696062861389"
      },
      "geometry": {
        "type": "Point",
        "coordinates": [
          32.23672092512173,
          -44.441977461502304
        ]
      }
    }
  ]
}